ONEWEB-0159             
1 48062U 21025W   25329.79677726 -.00000060  00000+0 -20001-3 0  9995
2 48062  87.9002   0.6293 0001627  88.8598 271.2718 13.13469712226904
ONEWEB-0164             
1 48063U 21025X   25329.62580015  .00000261  00000+0  67915-3 0  9998
2 48063  87.8999   0.6705 0001901  96.2791 263.8555 13.13469413226869
ONEWEB-0167             
1 48064U 21025Y   25329.80607360 -.00000410  00000+0 -11576-2 0  9991
2 48064  87.8991   0.6635 0002238  77.8252 282.3128 13.13468945226877
ONEWEB-0166             
1 48065U 21025Z   25329.60040867  .00000015  00000+0  56144-5 0  9995
2 48065  87.8997   0.6593 0001641  95.3512 264.7804 13.13470385226920
ONEWEB-0151             
1 48066U 21025AA  25329.60210219  .00000044  00000+0  85183-4 0  9992
2 48066  87.9000   0.6850 0001948  92.2885 267.8467 13.13470159226863
ONEWEB-0170             
1 48067U 21025AB  25329.61057229  .00000223  00000+0  57605-3 0  9990
2 48067  87.8995   0.6893 0002283  96.8801 263.2588 13.13470714226821
ONEWEB-0168             
1 48068U 21025AC  25329.82386169 -.00000125  00000+0 -37817-3 0  9998
2 48068  87.9000   0.6306 0001722  89.9179 270.2147 13.13470575226865
ONEWEB-0173             
1 48069U 21025AD  25329.81539567 -.00000250  00000+0 -72041-3 0  9997
2 48069  87.9001   0.6402 0001828  81.3485 278.7851 13.13470172227103
